2017-071R               
1 43052U 17071R   17345.81744500  .00003387  00000-0  10010-3 0  9995
2 43052  51.6395 233.4309 0002251 338.3233  21.7655 15.37811676   724
